SPACEBEE-113            
1 52024U 22026S   23250.78435854  .00053295  00000+0  13563-2 0  9994
2 52024  97.5057 256.4312 0020742 133.6342 226.6628 15.39188144 82206
SPACEBEE-112            
1 52025U 22026T   23250.82447057  .00079329  00000+0  17266-2 0  9998
2 52025  97.5041 257.4161 0018532 131.8118 228.4716 15.43829464 82275
SPACEBEENZ-13           
1 52026U 22026U   23250.48712935  .00117773  00000+0  19115-2 0  9992
2 52026  97.4966 258.5233 0017136 128.6402 231.6387 15.52158239 82233
SPACEBEE-123            
1 52027U 22026V   23250.82403686  .00050973  00000+0  13530-2 0  9994
2 52027  97.5058 255.9938 0019623 136.9324 223.3461 15.37929503 82096
SPACEBEENZ-12           
1 52028U 22026W   23250.46269330  .00086763  00000+0  16885-2 0  9993
2 52028  97.5093 257.9021 0017963 130.9343 229.3465 15.47091443 82264
SPACEBEE-124            
1 52029U 22026X   23250.83370882  .00050776  00000+0  13442-2 0  9991
2 52029  97.5051 255.9672 0019813 136.5030 223.7781 15.38008365 80819
YAOGAN-34 02            
1 52084U 22027A   23250.84770470 -.00000079  00000+0  18541-4 0  9990
2 52084  63.3974 284.1179 0044816 352.2084   7.8241 13.45275519 72588
STARLINK-3537           
1 52088U 22029A   23250.02207047  .00001194  00000+0  93136-4 0  9992
2 52088  53.2156 124.9609 0001364  87.9026 272.2122 15.08835511 84113
STARLINK-3722           
1 52089U 22029B   23251.10862241  .00000794  00000+0  67978-4 0  9996
2 52089  53.2161 230.3451 0001514 100.2900 259.8263 15.08833614 82739
STARLINK-3712           
1 52090U 22029C   23251.09758003 -.00000153  00000+0  85127-5 0  9993
2 52090  53.2144 230.3909 0001507  94.5325 265.5839 15.08838483 82730
STARLINK-3713           
1 52091U 22029D   23251.10494122 -.00000355  00000+0 -42024-5 0  9999
2 52091  53.2160 230.3617 0001706  94.6636 265.4551 15.08837535 82739
STARLINK-3716           
1 52092U 22029E   23251.10125899  .00000013  00000+0  18916-4 0  9993
2 52092  53.2144 230.3736 0001392  91.4368 268.6784 15.08836389 82731
STARLINK-3673           
1 52093U 22029F   23251.09117765  .00000322  00000+0  38327-4 0  9996
2 52093  53.2150 230.4338 0001523  97.7352 262.3813 15.08833590 82731
STARLINK-3714           
1 52094U 22029G   23250.36525745 -.00000052  00000+0  14823-4 0  9993
2 52094  53.2154 233.6818 0001381  92.0303 268.0848 15.08841052 82621
STARLINK-3701           
1 52095U 22029H   23250.95037863  .00002666  00000+0  18556-3 0  9996
2 52095  53.2160 231.0549 0001196  96.5994 263.5135 15.08838082 82719
STARLINK-3717           
1 52096U 22029J   23251.06169786  .00000010  00000+0  18725-4 0  9990
2 52096  53.2161 220.5562 0001366  99.4856 260.6290 15.08840606 82857
STARLINK-3665           
1 52098U 22029L   23251.08653480  .00000680  00000+0  60791-4 0  9996
2 52098  53.2148 230.4421 0001412  94.0757 266.0396 15.08844148 82730
