[{"OBJECT_NAME":"SPACEBEE-113","OBJECT_ID":"2022-026S","EPOCH":"2023-09-07T18:49:28.577856","MEAN_MOTION":15.39188144,"ECCENTRICITY":0.0020742,"INCLINATION":97.5057,"RA_OF_ASC_NODE":256.4312,"ARG_OF_PERICENTER":133.6342,"MEAN_ANOMALY":226.6628,"EPHEMERIS_TYPE":0,"CLASSIFICATION_TYPE":"U","NORAD_CAT_ID":52024,"ELEMENT_SET_NO":999,"REV_AT_EPOCH":8220,"BSTAR":0.0013563,"MEAN_MOTION_DOT":0.00053295,"MEAN_MOTION_DDOT":0},{"OBJECT_NAME":"SPACEBEE-112","OBJECT_ID":"2022-026T","EPOCH":"2023-09-07T19:47:14.257248","MEAN_MOTION":15.43829464,"ECCENTRICITY":0.0018532,"INCLINATION":97.5041,"RA_OF_ASC_NODE":257.4161,"ARG_OF_PERICENTER":131.8118,"MEAN_ANOMALY":228.4716,"EPHEMERIS_TYPE":0,"CLASSIFICATION_TYPE":"U","NORAD_CAT_ID":52025,"ELEMENT_SET_NO":999,"REV_AT_EPOCH":8227,"BSTAR":0.0017266,"MEAN_MOTION_DOT":0.00079329,"MEAN_MOTION_DDOT":0},{"OBJECT_NAME":"SPACEBEENZ-13","OBJECT_ID":"2022-026U","EPOCH":"2023-09-07T11:41:27.975840","MEAN_MOTION":15.52158239,"ECCENTRICITY":0.0017136,"INCLINATION":97.4966,"RA_OF_ASC_NODE":258.5233,"ARG_OF_PERICENTER":128.6402,"MEAN_ANOMALY":231.6387,"EPHEMERIS_TYPE":0,"CLASSIFICATION_TYPE":"U","NORAD_CAT_ID":52026,"ELEMENT_SET_NO":999,"REV_AT_EPOCH":8223,"BSTAR":0.0019115,"MEAN_MOTION_DOT":0.00117773,"MEAN_MOTION_DDOT":0},{"OBJECT_NAME":"SPACEBEE-123","OBJECT_ID":"2022-026V","EPOCH":"2023-09-07T19:46:36.784704","MEAN_MOTION":15.37929503,"ECCENTRICITY":0.0019623,"INCLINATION":97.5058,"RA_OF_ASC_NODE":255.9938,"ARG_OF_PERICENTER":136.9324,"MEAN_ANOMALY":223.3461,"EPHEMERIS_TYPE":0,"CLASSIFICATION_TYPE":"U","NORAD_CAT_ID":52027,"ELEMENT_SET_NO":999,"REV_AT_EPOCH":8209,"BSTAR":0.001353,"MEAN_MOTION_DOT":0.00050973,"MEAN_MOTION_DDOT":0},{"OBJECT_NAME":"SPACEBEENZ-12","OBJECT_ID":"2022-026W","EPOCH":"2023-09-07T11:06:16.701120","MEAN_MOTION":15.47091443,"ECCENTRICITY":0.0017963,"INCLINATION":97.5093,"RA_OF_ASC_NODE":257.9021,"ARG_OF_PERICENTER":130.9343,"MEAN_ANOMALY":229.3465,"EPHEMERIS_TYPE":0,"CLASSIFICATION_TYPE":"U","NORAD_CAT_ID":52028,"ELEMENT_SET_NO":999,"REV_AT_EPOCH":8226,"BSTAR":0.0016885,"MEAN_MOTION_DOT":0.00086763,"MEAN_MOTION_DDOT":0},{"OBJECT_NAME":"SPACEBEE-124","OBJECT_ID":"2022-026X","EPOCH":"2023-09-07T20:00:32.442048","MEAN_MOTION":15.38008365,"ECCENTRICITY":0.0019813,"INCLINATION":97.5051,"RA_OF_ASC_NODE":255.9672,"ARG_OF_PERICENTER":136.503,"MEAN_ANOMALY":223.7781,"EPHEMERIS_TYPE":0,"CLASSIFICATION_TYPE":"U","NORAD_CAT_ID":52029,"ELEMENT_SET_NO":999,"REV_AT_EPOCH":8081,"BSTAR":0.0013442,"MEAN_MOTION_DOT":0.00050776,"MEAN_MOTION_DDOT":0},{"OBJECT_NAME":"YAOGAN-34 02","OBJECT_ID":"2022-027A","EPOCH":"2023-09-07T20:20:41.686080","MEAN_MOTION":13.45275519,"ECCENTRICITY":0.0044816,"INCLINATION":63.3974,"RA_OF_ASC_NODE":284.1179,"ARG_OF_PERICENTER":352.2084,"MEAN_ANOMALY":7.8241,"EPHEMERIS_TYPE":0,"CLASSIFICATION_TYPE":"U","NORAD_CAT_ID":52084,"ELEMENT_SET_NO":999,"REV_AT_EPOCH":7258,"BSTAR":1.8541e-5,"MEAN_MOTION_DOT":-7.9e-7,"MEAN_MOTION_DDOT":0},{"OBJECT_NAME":"STARLINK-3537","OBJECT_ID":"2022-029A","EPOCH":"2023-09-07T00:31:46.888608","MEAN_MOTION":15.08835511,"ECCENTRICITY":0.0001364,"INCLINATION":53.2156,"RA_OF_ASC_NODE":124.9609,"ARG_OF_PERICENTER":87.9026,"MEAN_ANOMALY":272.2122,"EPHEMERIS_TYPE":0,"CLASSIFICATION_TYPE":"U","NORAD_CAT_ID":52088,"ELEMENT_SET_NO":999,"REV_AT_EPOCH":8411,"BSTAR":9.3136e-5,"MEAN_MOTION_DOT":1.194e-5,"MEAN_MOTION_DDOT":0},{"OBJECT_NAME":"STARLINK-3722","OBJECT_ID":"2022-029B","EPOCH":"2023-09-08T02:36:24.976224","MEAN_MOTION":15.08833614,"ECCENTRICITY":0.0001514,"INCLINATION":53.2161,"RA_OF_ASC_NODE":230.3451,"ARG_OF_PERICENTER":100.29,"MEAN_ANOMALY":259.8263,"EPHEMERIS_TYPE":0,"CLASSIFICATION_TYPE":"U","NORAD_CAT_ID":52089,"ELEMENT_SET_NO":999,"REV_AT_EPOCH":8273,"BSTAR":6.7978e-5,"MEAN_MOTION_DOT":7.94e-6,"MEAN_MOTION_DDOT":0},{"OBJECT_NAME":"STARLINK-3712","OBJECT_ID":"2022-029C","EPOCH":"2023-09-08T02:20:30.914592","MEAN_MOTION":15.08838483,"ECCENTRICITY":0.0001507,"INCLINATION":53.2144,"RA_OF_ASC_NODE":230.3909,"ARG_OF_PERICENTER":94.5325,"MEAN_ANOMALY":265.5839,"EPHEMERIS_TYPE":0,"CLASSIFICATION_TYPE":"U","NORAD_CAT_ID":52090,"ELEMENT_SET_NO":999,"REV_AT_EPOCH":8273,"BSTAR":8.5127e-6,"MEAN_MOTION_DOT":-1.53e-6,"MEAN_MOTION_DDOT":0},{"OBJECT_NAME":"STARLINK-3713","OBJECT_ID":"2022-029D","EPOCH":"2023-09-08T02:31:06.921408","MEAN_MOTION":15.08837535,"ECCENTRICITY":0.0001706,"INCLINATION":53.216,"RA_OF_ASC_NODE":230.3617,"ARG_OF_PERICENTER":94.6636,"MEAN_ANOMALY":265.4551,"EPHEMERIS_TYPE":0,"CLASSIFICATION_TYPE":"U","NORAD_CAT_ID":52091,"ELEMENT_SET_NO":999,"REV_AT_EPOCH":8273,"BSTAR":-4.2024e-6,"MEAN_MOTION_DOT":-3.55e-6,"MEAN_MOTION_DDOT":0},{"OBJECT_NAME":"STARLINK-3716","OBJECT_ID":"2022-029E","EPOCH":"2023-09-08T02:25:48.776736","MEAN_MOTION":15.08836389,"ECCENTRICITY":0.0001392,"INCLINATION":53.2144,"RA_OF_ASC_NODE":230.3736,"ARG_OF_PERICENTER":91.4368,"MEAN_ANOMALY":268.6784,"EPHEMERIS_TYPE":0,"CLASSIFICATION_TYPE":"U","NORAD_CAT_ID":52092,"ELEMENT_SET_NO":999,"REV_AT_EPOCH":8273,"BSTAR":1.8916e-5,"MEAN_MOTION_DOT":1.3e-7,"MEAN_MOTION_DDOT":0},{"OBJECT_NAME":"STARLINK-3673","OBJECT_ID":"2022-029F","EPOCH":"2023-09-08T02:11:17.748960","MEAN_MOTION":15.0883359,"ECCENTRICITY":0.0001523,"INCLINATION":53.215,"RA_OF_ASC_NODE":230.4338,"ARG_OF_PERICENTER":97.7352,"MEAN_ANOMALY":262.3813,"EPHEMERIS_TYPE":0,"CLASSIFICATION_TYPE":"U","NORAD_CAT_ID":52093,"ELEMENT_SET_NO":999,"REV_AT_EPOCH":8273,"BSTAR":3.8327e-5,"MEAN_MOTION_DOT":3.22e-6,"MEAN_MOTION_DDOT":0},{"OBJECT_NAME":"STARLINK-3714","OBJECT_ID":"2022-029G","EPOCH":"2023-09-07T08:45:58.243680","MEAN_MOTION":15.08841052,"ECCENTRICITY":0.0001381,"INCLINATION":53.2154,"RA_OF_ASC_NODE":233.6818,"ARG_OF_PERICENTER":92.0303,"MEAN_ANOMALY":268.0848,"EPHEMERIS_TYPE":0,"CLASSIFICATION_TYPE":"U","NORAD_CAT_ID":52094,"ELEMENT_SET_NO":999,"REV_AT_EPOCH":8262,"BSTAR":1.4823e-5,"MEAN_MOTION_DOT":-5.2e-7,"MEAN_MOTION_DDOT":0},{"OBJECT_NAME":"STARLINK-3701","OBJECT_ID":"2022-029H","EPOCH":"2023-09-07T22:48:32.713632","MEAN_MOTION":15.08838082,"ECCENTRICITY":0.0001196,"INCLINATION":53.216,"RA_OF_ASC_NODE":231.0549,"ARG_OF_PERICENTER":96.5994,"MEAN_ANOMALY":263.5135,"EPHEMERIS_TYPE":0,"CLASSIFICATION_TYPE":"U","NORAD_CAT_ID":52095,"ELEMENT_SET_NO":999,"REV_AT_EPOCH":8271,"BSTAR":0.00018556,"MEAN_MOTION_DOT":2.666e-5,"MEAN_MOTION_DDOT":0},{"OBJECT_NAME":"STARLINK-3717","OBJECT_ID":"2022-029J","EPOCH":"2023-09-08T01:28:50.695104","MEAN_MOTION":15.08840606,"ECCENTRICITY":0.0001366,"INCLINATION":53.2161,"RA_OF_ASC_NODE":220.5562,"ARG_OF_PERICENTER":99.4856,"MEAN_ANOMALY":260.629,"EPHEMERIS_TYPE":0,"CLASSIFICATION_TYPE":"U","NORAD_CAT_ID":52096,"ELEMENT_SET_NO":999,"REV_AT_EPOCH":8285,"BSTAR":1.8725e-5,"MEAN_MOTION_DOT":1.0e-7,"MEAN_MOTION_DDOT":0},{"OBJECT_NAME":"STARLINK-3665","OBJECT_ID":"2022-029L","EPOCH":"2023-09-08T02:04:36.606720","MEAN_MOTION":15.08844148,"ECCENTRICITY":0.0001412,"INCLINATION":53.2148,"RA_OF_ASC_NODE":230.4421,"ARG_OF_PERICENTER":94.0757,"MEAN_ANOMALY":266.0396,"EPHEMERIS_TYPE":0,"CLASSIFICATION_TYPE":"U","NORAD_CAT_ID":52098,"ELEMENT_SET_NO":999,"REV_AT_EPOCH":8273,"BSTAR":6.0791e-5,"MEAN_MOTION_DOT":6.8e-6,"MEAN_MOTION_DDOT":0}]
